IRIDIUM 154             
1 43574U 18061F   22042.13733864  .00000182  00000+0  58083-4 0  9992
2 43574  86.4006 359.9911 0001867  82.9864 277.1544 14.34217873185931
IRIDIUM 163             
1 43575U 18061G   22041.90901334  .00000183  00000+0  58299-4 0  9996
2 43575  86.4002   0.0503 0002364  76.4385 283.7074 14.34220227185879
IRIDIUM 156             
1 43576U 18061H   22041.88363719  .00000173  00000+0  54819-4 0  9996
2 43576  86.4003   0.0662 0002468  85.4202 274.7276 14.34217706185861
IRIDIUM 164             
1 43577U 18061J   22042.14368475  .00000171  00000+0  54044-4 0  9999
2 43577  86.4005 359.9737 0001996  79.9986 280.1435 14.34218446185944
IRIDIUM 159             
1 43578U 18061K   22042.11198568  .00000179  00000+0  56975-4 0  9994
2 43578  86.4002 359.9571 0001953  83.0105 277.1312 14.34219024185909
IRIDIUM 180             
1 43922U 19002A   22041.76260908  .00000161  00000+0  50329-4 0  9999
2 43922  86.3968 296.9771 0001688  63.1948 296.9420 14.34216790161464
IRIDIUM 176             
1 43923U 19002B   22042.18092881  .00000558  00000+0  84633-4 0  9995
2 43923  86.6101 296.8374 0002192  92.6203 267.5265 14.72255586165752
IRIDIUM 168             
1 43924U 19002C   22041.75628189  .00000159  00000+0  49789-4 0  9994
2 43924  86.3970 297.0123 0001764  81.2903 278.8492 14.34219835161448
IRIDIUM 173             
1 43925U 19002D   22042.16219629  .00000164  00000+0  51674-4 0  9998
2 43925  86.3966 296.7961 0001864  81.0521 279.0886 14.34219364161497
IRIDIUM 169             
1 43926U 19002E   22041.85046341  .00000237  00000+0  70944-4 0  9995
2 43926  86.4261 328.5314 0005390 146.2667 213.8875 14.38610275162019
IRIDIUM 172             
1 43927U 19002F   22041.80702547  .00000164  00000+0  51431-4 0  9997
2 43927  86.3967 296.9477 0001812  78.8916 281.2484 14.34217855161446
IRIDIUM 175             
1 43928U 19002G   22041.76697822  .00000509  00000+0  76815-4 0  9998
2 43928  86.6104 296.8371 0002117  79.3800 280.7655 14.72252735165684
IRIDIUM 171             
1 43929U 19002H   22042.13683410  .00000168  00000+0  52908-4 0  9997
2 43929  86.3977 296.9400 0001756  82.3862 277.7533 14.34217106161480
IRIDIUM 170             
1 43930U 19002J   22041.77930384  .00000517  00000+0  78127-4 0  9992
2 43930  86.6101 297.0109 0002130  86.8274 273.3187 14.72263384165702
IRIDIUM 167             
1 43931U 19002K   22041.78166283  .00000161  00000+0  50370-4 0  9998
2 43931  86.3968 296.9667 0001666  72.0011 288.1366 14.34217065161439
